start=new Date('2022-02-12T00:00:00.000Z').valueOf();
sats=[{"MEAN_MOTION":"15.06410953","REF_FRAME":"TEME","APOAPSIS":"548.287","FILE":"3297889","OBJECT_TYPE":"PAYLOAD","OBJECT_ID":"2021-012AA","TLE_LINE1":"1 47644U 21012AA  22042.79841226  .00002969  00000-0  21810-3 0  9991","LAUNCH_DATE":"2021-02-16","CLASSIFICATION_TYPE":"U","NORAD_CAT_ID":"47644","RCS_SIZE":"LARGE","EPHEMERIS_TYPE":"0","PERIAPSIS":"546.073","OBJECT_NAME":"STARLINK-2026","ECCENTRICITY":"0.00015990","EPOCH":"2022-02-11T19:09:42.819264","MEAN_ANOMALY":"287.2272","BSTAR":"0.00021810000000","REV_AT_EPOCH":"5536","COUNTRY_CODE":"US","PERIOD":"95.591","DECAY_DATE":null,"RA_OF_ASC_NODE":"266.5356","GP_ID":"195759728","ELEMENT_SET_NO":"999","MEAN_ELEMENT_THEORY":"SGP4","INCLINATION":"53.0529","MEAN_MOTION_DDOT":"0.0000000000000","SITE":"AFETR","MEAN_MOTION_DOT":"0.00002969","TLE_LINE2":"2 47644  53.0529 266.5356 0001599  72.8892 287.2272 15.06410953 55367","SEMIMAJOR_AXIS":"6925.315","CENTER_NAME":"EARTH","ARG_OF_PERICENTER":"72.8892","TIME_SYSTEM":"UTC"},{"CENTER_NAME":"EARTH","SEMIMAJOR_AXIS":"6925.303","TIME_SYSTEM":"UTC","ARG_OF_PERICENTER":"106.9932","INCLINATION":"53.0528","MEAN_MOTION_DDOT":"0.0000000000000","MEAN_MOTION_DOT":"0.00004758","SITE":"AFETR","TLE_LINE2":"2 47645  53.0528 237.7253 0000802 106.9932 253.1145 15.06414735 56233","RA_OF_ASC_NODE":"237.7253","DECAY_DATE":null,"PERIOD":"95.591","ELEMENT_SET_NO":"999","GP_ID":"195752842","MEAN_ELEMENT_THEORY":"SGP4","BSTAR":"0.00033797000000","REV_AT_EPOCH":"5623","COUNTRY_CODE":"US","EPOCH":"2022-02-11T12:44:52.357920","MEAN_ANOMALY":"253.1145","ECCENTRICITY":"0.00008020","PERIAPSIS":"546.613","OBJECT_NAME":"STARLINK-2027","TLE_LINE1":"1 47645U 21012AB  22042.53116155  .00004758  00000-0  33797-3 0  9995","LAUNCH_DATE":"2021-02-16","NORAD_CAT_ID":"47645","CLASSIFICATION_TYPE":"U","RCS_SIZE":"LARGE","EPHEMERIS_TYPE":"0","APOAPSIS":"547.724","OBJECT_TYPE":"PAYLOAD","OBJECT_ID":"2021-012AB","FILE":"3297735","MEAN_MOTION":"15.06414735","REF_FRAME":"TEME"},{"SEMIMAJOR_AXIS":"6925.390","CENTER_NAME":"EARTH","TIME_SYSTEM":"UTC","ARG_OF_PERICENTER":"64.6426","INCLINATION":"53.0558","MEAN_MOTION_DDOT":"0.0000000000000","MEAN_MOTION_DOT":"-0.00000358","SITE":"AFETR","TLE_LINE2":"2 47646  53.0558 201.6069 0001581  64.6426 295.4727 15.06386444 56268","RA_OF_ASC_NODE":"201.6069","DECAY_DATE":null,"PERIOD":"95.593","ELEMENT_SET_NO":"999","GP_ID":"195760227","MEAN_ELEMENT_THEORY":"SGP4","BSTAR":"-0.00000513580000","REV_AT_EPOCH":"5626","COUNTRY_CODE":"US","MEAN_ANOMALY":"295.4727","EPOCH":"2022-02-11T18:47:47.872608","PERIAPSIS":"546.160","ECCENTRICITY":"0.00015810","OBJECT_NAME":"STARLINK-2028","TLE_LINE1":"1 47646U 21012AC  22042.78319297 -.00000358  00000-0 -51358-5 0  9994","LAUNCH_DATE":"2021-02-16","NORAD_CAT_ID":"47646","CLASSIFICATION_TYPE":"U","RCS_SIZE":"LARGE","EPHEMERIS_TYPE":"0","APOAPSIS":"548.350","OBJECT_TYPE":"PAYLOAD","OBJECT_ID":"2021-012AC","FILE":"3297889","MEAN_MOTION":"15.06386444","REF_FRAME":"TEME"},{"BSTAR":"0.00022289000000","COUNTRY_CODE":"US","REV_AT_EPOCH":"5581","DECAY_DATE":null,"PERIOD":"95.592","RA_OF_ASC_NODE":"268.5779","GP_ID":"195753344","ELEMENT_SET_NO":"999","MEAN_ELEMENT_THEORY":"SGP4","INCLINATION":"53.0550","MEAN_MOTION_DDOT":"0.0000000000000","SITE":"AFETR","MEAN_MOTION_DOT":"0.00003041","TLE_LINE2":"2 47647  53.0550 268.5779 0001671  65.9029 294.2134 15.06409769 55819","SEMIMAJOR_AXIS":"6925.319","CENTER_NAME":"EARTH","ARG_OF_PERICENTER":"65.9029","TIME_SYSTEM":"UTC","MEAN_MOTION":"15.06409769","REF_FRAME":"TEME","APOAPSIS":"548.341","FILE":"3297735","OBJECT_TYPE":"PAYLOAD","OBJECT_ID":"2021-012AD","LAUNCH_DATE":"2021-02-16","TLE_LINE1":"1 47647U 21012AD  22042.34504976  .00003041  00000-0  22289-3 0  9996","CLASSIFICATION_TYPE":"U","NORAD_CAT_ID":"47647","RCS_SIZE":"LARGE","EPHEMERIS_TYPE":"0","PERIAPSIS":"546.026","OBJECT_NAME":"STARLINK-2030","ECCENTRICITY":"0.00016710","MEAN_ANOMALY":"294.2134","EPOCH":"2022-02-11T08:16:52.299264"},{"REF_FRAME":"TEME","MEAN_MOTION":"15.06405931","FILE":"3297735","OBJECT_ID":"2021-012AE","OBJECT_TYPE":"PAYLOAD","APOAPSIS":"548.465","CLASSIFICATION_TYPE":"U","NORAD_CAT_ID":"47648","EPHEMERIS_TYPE":"0","RCS_SIZE":"MEDIUM","TLE_LINE1":"1 47648U 21012AE  22042.26948880  .00002234  00000-0  16880-3 0  9997","LAUNCH_DATE":"2021-02-16","PERIAPSIS":"545.925","OBJECT_NAME":"STARLINK-2031","ECCENTRICITY":"0.00018340","MEAN_ANOMALY":"296.6308","EPOCH":"2022-02-11T06:28:03.832320","REV_AT_EPOCH":"5608","COUNTRY_CODE":"US","BSTAR":"0.00016880000000","GP_ID":"195752092","ELEMENT_SET_NO":"999","MEAN_ELEMENT_THEORY":"SGP4","PERIOD":"95.592","DECAY_DATE":null,"RA_OF_ASC_NODE":"248.9129","SITE":"AFETR","MEAN_MOTION_DOT":"0.00002234","TLE_LINE2":"2 47648  53.0543 248.9129 0001834  63.4869 296.6308 15.06405931 56085","INCLINATION":"53.0543","MEAN_MOTION_DDOT":"0.0000000000000","ARG_OF_PERICENTER":"63.4869","TIME_SYSTEM":"UTC","SEMIMAJOR_AXIS":"6925.330","CENTER_NAME":"EARTH"},{"MEAN_MOTION":"15.06417596","REF_FRAME":"TEME","APOAPSIS":"548.244","OBJECT_TYPE":"PAYLOAD","OBJECT_ID":"2021-012AF","FILE":"3297735","LAUNCH_DATE":"2021-02-16","TLE_LINE1":"1 47649U 21012AF  22042.53855950 -.00002005  00000-0 -11566-3 0  9997","RCS_SIZE":"LARGE","EPHEMERIS_TYPE":"0","NORAD_CAT_ID":"47649","CLASSIFICATION_TYPE":"U","MEAN_ANOMALY":"288.8768","EPOCH":"2022-02-11T12:55:31.540800","OBJECT_NAME":"STARLINK-2032","PERIAPSIS":"546.075","ECCENTRICITY":"0.00015660","BSTAR":"-0.00011566000000","COUNTRY_CODE":"US","REV_AT_EPOCH":"5612","RA_OF_ASC_NODE":"247.7040","DECAY_DATE":null,"PERIOD":"95.591","MEAN_ELEMENT_THEORY":"SGP4","ELEMENT_SET_NO":"999","GP_ID":"195752342","MEAN_MOTION_DDOT":"0.0000000000000","INCLINATION":"53.0545","TLE_LINE2":"2 47649  53.0545 247.7040 0001566  71.2391 288.8768 15.06417596 56124","MEAN_MOTION_DOT":"-0.00002005","SITE":"AFETR","CENTER_NAME":"EARTH","SEMIMAJOR_AXIS":"6925.295","TIME_SYSTEM":"UTC","ARG_OF_PERICENTER":"71.2391"},{"INCLINATION":"53.0528","MEAN_MOTION_DDOT":"0.0000000000000","SITE":"AFETR","MEAN_MOTION_DOT":"0.00000907","TLE_LINE2":"2 47650  53.0528 246.2817 0001871  72.4636 287.6558 15.06408077 55641","CENTER_NAME":"EARTH","SEMIMAJOR_AXIS":"6925.324","ARG_OF_PERICENTER":"72.4636","TIME_SYSTEM":"UTC","BSTAR":"0.00007977000000","REV_AT_EPOCH":"5564","COUNTRY_CODE":"US","PERIOD":"95.592","DECAY_DATE":null,"RA_OF_ASC_NODE":"246.2817","GP_ID":"195760506","ELEMENT_SET_NO":"999","MEAN_ELEMENT_THEORY":"SGP4","TLE_LINE1":"1 47650U 21012AG  22042.85555402  .00000907  00000-0  79770-4 0  9992","LAUNCH_DATE":"2021-02-16","CLASSIFICATION_TYPE":"U","NORAD_CAT_ID":"47650","RCS_SIZE":"LARGE","EPHEMERIS_TYPE":"0","OBJECT_NAME":"STARLINK-2033","PERIAPSIS":"545.893","ECCENTRICITY":"0.00018710","MEAN_ANOMALY":"287.6558","EPOCH":"2022-02-11T20:31:59.867328","MEAN_MOTION":"15.06408077","REF_FRAME":"TEME","APOAPSIS":"548.485","FILE":"3297909","OBJECT_ID":"2021-012AG","OBJECT_TYPE":"PAYLOAD"},{"OBJECT_TYPE":"PAYLOAD","OBJECT_ID":"2021-012AH","FILE":"3297735","APOAPSIS":"548.329","REF_FRAME":"TEME","MEAN_MOTION":"15.06434026","MEAN_ANOMALY":"285.5100","EPOCH":"2022-02-11T08:36:45.855648","PERIAPSIS":"545.890","ECCENTRICITY":"0.00017610","OBJECT_NAME":"STARLINK-2035","RCS_SIZE":"LARGE","EPHEMERIS_TYPE":"0","NORAD_CAT_ID":"47651","CLASSIFICATION_TYPE":"U","LAUNCH_DATE":"2021-02-16","TLE_LINE1":"1 47651U 21012AH  22042.35886407  .00012590  00000-0  86182-3 0  9995","MEAN_ELEMENT_THEORY":"SGP4","ELEMENT_SET_NO":"999","GP_ID":"195753845","RA_OF_ASC_NODE":"268.5148","PERIOD":"95.590","DECAY_DATE":null,"COUNTRY_CODE":"US","REV_AT_EPOCH":"5581","BSTAR":"0.00086182000000","TIME_SYSTEM":"UTC","ARG_OF_PERICENTER":"74.6083","SEMIMAJOR_AXIS":"6925.244","CENTER_NAME":"EARTH","TLE_LINE2":"2 47651  53.0534 268.5148 0001761  74.6083 285.5100 15.06434026 55813","MEAN_MOTION_DOT":"0.00012590","SITE":"AFETR","MEAN_MOTION_DDOT":"0.0000000000000","INCLINATION":"53.0534"},{"PERIOD":"95.591","DECAY_DATE":null,"RA_OF_ASC_NODE":"268.6908","GP_ID":"195752593","ELEMENT_SET_NO":"999","MEAN_ELEMENT_THEORY":"SGP4","BSTAR":"0.00015034000000","COUNTRY_CODE":"US","REV_AT_EPOCH":"5580","SEMIMAJOR_AXIS":"6925.307","CENTER_NAME":"EARTH","ARG_OF_PERICENTER":"63.8606","TIME_SYSTEM":"UTC","INCLINATION":"53.0550","MEAN_MOTION_DDOT":"0.0000000000000","SITE":"AFETR","MEAN_MOTION_DOT":"0.00001959","TLE_LINE2":"2 47652  53.0550 268.6908 0001888  63.8606 296.2577 15.06413556 55809","APOAPSIS":"548.480","FILE":"3297735","OBJECT_ID":"2021-012AJ","OBJECT_TYPE":"PAYLOAD","MEAN_MOTION":"15.06413556","REF_FRAME":"TEME","PERIAPSIS":"545.865","OBJECT_NAME":"STARLINK-2036","ECCENTRICITY":"0.00018880","EPOCH":"2022-02-11T07:39:42.585696","MEAN_ANOMALY":"296.2577","LAUNCH_DATE":"2021-02-16","TLE_LINE1":"1 47652U 21012AJ  22042.31924289  .00001959  00000-0  15034-3 0  9998","CLASSIFICATION_TYPE":"U","NORAD_CAT_ID":"47652","RCS_SIZE":"LARGE","EPHEMERIS_TYPE":"0"},{"ELEMENT_SET_NO":"999","GP_ID":"195752843","MEAN_ELEMENT_THEORY":"SGP4","RA_OF_ASC_NODE":"249.8919","PERIOD":"95.592","DECAY_DATE":null,"REV_AT_EPOCH":"5603","COUNTRY_CODE":"US","BSTAR":"0.00006277800000","TIME_SYSTEM":"UTC","ARG_OF_PERICENTER":"58.0713","CENTER_NAME":"EARTH","SEMIMAJOR_AXIS":"6925.319","MEAN_MOTION_DOT":"0.00000654","SITE":"AFETR","TLE_LINE2":"2 47653  53.0531 249.8919 0001669  58.0713 302.0438 15.06409765 56039","INCLINATION":"53.0531","MEAN_MOTION_DDOT":"0.0000000000000","OBJECT_TYPE":"PAYLOAD","OBJECT_ID":"2021-012AK","FILE":"3297735","APOAPSIS":"548.339","REF_FRAME":"TEME","MEAN_MOTION":"15.06409765","MEAN_ANOMALY":"302.0438","EPOCH":"2022-02-11T01:09:36.439488","PERIAPSIS":"546.028","OBJECT_NAME":"STARLINK-2037","ECCENTRICITY":"0.00016690","NORAD_CAT_ID":"47653","CLASSIFICATION_TYPE":"U","RCS_SIZE":"LARGE","EPHEMERIS_TYPE":"0","LAUNCH_DATE":"2021-02-16","TLE_LINE1":"1 47653U 21012AK  22042.04833842  .00000654  00000-0  62778-4 0  9992"}];
